{
  "norad_id": 63653,
  "name": "STARLINK-33866",
  "history": [
    {
      "epoch": "2026-03-28T18:39:32.879232",
      "apogee_km": 483.86761808541996,
      "perigee_km": 482.17222620995653,
      "latitude_deg": 0.10208797651355743,
      "longitude_deg": -100.06346752005629,
      "semi_major_axis_km": 6861.1569221476875,
      "eccentricity": 0.00012355,
      "inclination_deg": 43.0002,
      "raan_deg": 257.6183,
      "arg_perigee_deg": 273.0455,
      "mean_anomaly_deg": 87.0255,
      "mean_motion_rev_day": 15.27589743
    }
  ]
}